{"type":"FeatureCollection","features":[{"type":"Feature","properties":{"id":"32453020","nom":"Vía Usme - Sumapáz","tipo":"tertiary"},"geometry":{"type":"LineString","coordinates":[[-74.20672,4.28913],[-74.20641,4.28913],[-74.20612,4.28908],[-74.20592,4.28898],[-74.20571,4.28882],[-74.20462,4.28768],[-74.20348,4.28643],[-74.20333,4.28632],[-74.20291,4.28621]]}},{"type":"Feature","properties":{"id":"87809610","nom":"","tipo":"residential"},"geometry":{"type":"LineString","coordinates":[[-74.29895,4.30843],[-74.29918,4.30807]]}},{"type":"Feature","properties":{"id":"87809616","nom":"","tipo":"residential"},"geometry":{"type":"LineString","coordinates":[[-74.29805,4.30827],[-74.29817,4.30803],[-74.29833,4.30768]]}},{"type":"Feature","properties":{"id":"87809625","nom":"Calle 2","tipo":"residential"},"geometry":{"type":"LineString","coordinates":[[-74.29895,4.30843],[-74.29817,4.30803],[-74.2977,4.30784],[-74.29759,4.30783],[-74.29751,4.30782],[-74.29743,4.3078],[-74.29734,4.30778],[-74.29727,4.30774],[-74.29719,4.3077],[-74.29714,4.30766],[-74.29709,4.30764],[-74.297,4.30761],[-74.29691,4.30759],[-74.29681,4.30756],[-74.29674,4.30753],[-74.29662,4.30748],[-74.29654,4.30745],[-74.29642,4.3074],[-74.29633,4.30735],[-74.29624,4.30732],[-74.29613,4.30729],[-74.29595,4.30727],[-74.29557,4.30726],[-74.29548,4.30726],[-74.29538,4.30724],[-74.29533,4.3072],[-74.29525,4.30713],[-74.29515,4.30708],[-74.2949,4.30695],[-74.29453,4.3068],[-74.29402,4.30664],[-74.29346,4.30655]]}},{"type":"Feature","properties":{"id":"87809632","nom":"Carrera 2","tipo":"secondary"},"geometry":{"type":"LineString","coordinates":[[-74.3,4.30981],[-74.29998,4.30971],[-74.29999,4.30961]]}},{"type":"Feature","properties":{"id":"87809646","nom":"Calle 3","tipo":"residential"},"geometry":{"type":"LineString","coordinates":[[-74.2988,4.30789],[-74.29918,4.30807]]}},{"type":"Feature","properties":{"id":"87809648","nom":"Diagonal 3","tipo":"residential"},"geometry":{"type":"LineString","coordinates":[[-74.30023,4.30666],[-74.30012,4.30657],[-74.29983,4.30637],[-74.29976,4.30626],[-74.29971,4.30614],[-74.29984,4.30522],[-74.29988,4.30518],[-74.29992,4.30515]]}},{"type":"Feature","properties":{"id":"87809652","nom":"","tipo":"residential"},"geometry":{"type":"LineString","coordinates":[[-74.29967,4.30876],[-74.29956,4.30901]]}},{"type":"Feature","properties":{"id":"87809657","nom":"Carrera 4Este","tipo":"residential"},"geometry":{"type":"LineString","coordinates":[[-74.2988,4.30789],[-74.29919,4.30727],[-74.29924,4.3072]]}},{"type":"Feature","properties":{"id":"87809658","nom":"","tipo":"residential"},"geometry":{"type":"LineString","coordinates":[[-74.29833,4.30768],[-74.2988,4.30789]]}},{"type":"Feature","properties":{"id":"87809660","nom":"Calle 4","tipo":"residential"},"geometry":{"type":"LineString","coordinates":[[-74.30046,4.30747],[-74.30036,4.30746],[-74.30031,4.30745],[-74.30026,4.30742],[-74.30018,4.30732],[-74.30009,4.30725],[-74.3,4.30719],[-74.29963,4.30704],[-74.29938,4.30699]]}},{"type":"Feature","properties":{"id":"87809669","nom":"Calle 3","tipo":"residential"},"geometry":{"type":"LineString","coordinates":[[-74.3004,4.30874],[-74.30002,4.30848],[-74.29949,4.30822],[-74.29918,4.30807]]}},{"type":"Feature","properties":{"id":"87848028","nom":"Vía Usme - Sumapáz","tipo":"tertiary"},"geometry":{"type":"LineString","coordinates":[[-74.20291,4.28621],[-74.20251,4.28622],[-74.20219,4.28599],[-74.20193,4.28571],[-74.20135,4.28554],[-74.20097,4.28543],[-74.20065,4.28525],[-74.19743,4.28367],[-74.19694,4.28338],[-74.19647,4.28295],[-74.19564,4.28192],[-74.19445,4.28004],[-74.19319,4.27818],[-74.19261,4.27694],[-74.19204,4.27514],[-74.19117,4.27186],[-74.19015,4.2678],[-74.18989,4.26618],[-74.18973,4.26426],[-74.18958,4.2615],[-74.18957,4.2612],[-74.18935,4.25659],[-74.18935,4.25633],[-74.18956,4.25603],[-74.18961,4.25581],[-74.1895,4.25511],[-74.18903,4.25301],[-74.18865,4.25088],[-74.188,4.24628],[-74.18772,4.24583],[-74.18677,4.24481],[-74.18667,4.24458],[-74.18664,4.24429],[-74.18667,4.24352],[-74.18674,4.24302],[-74.18688,4.24247],[-74.18719,4.24133],[-74.18777,4.23911],[-74.18791,4.23836],[-74.1882,4.23746],[-74.1887,4.23686]]}},{"type":"Feature","properties":{"id":"198084105","nom":"Vía Usme - Sumapáz","tipo":"tertiary"},"geometry":{"type":"LineString","coordinates":[[-74.19114,4.225],[-74.19122,4.22486]]}},{"type":"Feature","properties":{"id":"198084107","nom":"Vía Usme -Sumapaz","tipo":"secondary"},"geometry":{"type":"LineString","coordinates":[[-74.25987,4.08472],[-74.2598,4.08479],[-74.25931,4.08502],[-74.25718,4.08596],[-74.25641,4.0863],[-74.25623,4.08641],[-74.25608,4.08658],[-74.25597,4.08678],[-74.25573,4.08807],[-74.25473,4.09132],[-74.25443,4.093],[-74.25387,4.09661],[-74.2532,4.09971],[-74.25323,4.09998],[-74.25343,4.10051],[-74.25349,4.10088],[-74.25339,4.10123],[-74.25309,4.10193],[-74.25301,4.10232],[-74.253,4.10402],[-74.25286,4.10481],[-74.25261,4.10556],[-74.25201,4.10638],[-74.25152,4.1076],[-74.25138,4.10853],[-74.25124,4.11022],[-74.25118,4.11045],[-74.24958,4.11291],[-74.24946,4.1133],[-74.24892,4.11592],[-74.24837,4.11684],[-74.24816,4.11733],[-74.24802,4.11806],[-74.24799,4.11862],[-74.24807,4.11901],[-74.24858,4.1202],[-74.24868,4.12059],[-74.24869,4.12307],[-74.2487,4.12329],[-74.24885,4.12396],[-74.24883,4.12418],[-74.24836,4.12517],[-74.24818,4.12528],[-74.24755,4.12523],[-74.24732,4.12528],[-74.24665,4.12566],[-74.24649,4.12583],[-74.24643,4.12606],[-74.24661,4.12774],[-74.24647,4.1297],[-74.24632,4.1299],[-74.24606,4.12992],[-74.2458,4.12988],[-74.24555,4.12997],[-74.24544,4.13011],[-74.24522,4.13089],[-74.24513,4.13107],[-74.24472,4.13151],[-74.24463,4.13171],[-74.24456,4.13239],[-74.24455,4.13375],[-74.24433,4.13696],[-74.24424,4.13714],[-74.24371,4.13757],[-74.24363,4.13764],[-74.24348,4.13782],[-74.24345,4.13805],[-74.2435,4.13848],[-74.24348,4.13873],[-74.24338,4.13895],[-74.24309,4.13938],[-74.24254,4.14036],[-74.24234,4.14098],[-74.24216,4.14203],[-74.24209,4.14222],[-74.24183,4.14257],[-74.24093,4.14355],[-74.2407,4.1439],[-74.23998,4.14724],[-74.23974,4.14757],[-74.23926,4.14798],[-74.23869,4.14864],[-74.23847,4.14899],[-74.23819,4.14977],[-74.23804,4.14995],[-74.23778,4.15],[-74.23661,4.14976],[-74.23643,4.1498],[-74.23629,4.14993],[-74.23617,4.1503],[-74.23606,4.15087],[-74.23614,4.15146],[-74.23633,4.15225],[-74.23641,4.15242],[-74.23657,4.15262],[-74.23702,4.15307],[-74.23723,4.15324],[-74.23747,4.15335],[-74.23783,4.15337],[-74.23873,4.15332],[-74.23894,4.15342],[-74.23909,4.15362],[-74.2393,4.15413],[-74.23929,4.1544],[-74.23923,4.15458],[-74.23814,4.15721],[-74.23816,4.15748],[-74.23828,4.15773],[-74.23828,4.15792],[-74.23824,4.1581],[-74.2377,4.15941],[-74.2376,4.16003],[-74.23762,4.16106],[-74.23756,4.16124],[-74.23726,4.16162],[-74.23717,4.16186],[-74.23725,4.16238],[-74.23717,4.16262],[-74.23698,4.1628],[-74.23552,4.16385],[-74.23527,4.1641],[-74.23508,4.1648],[-74.23476,4.16526],[-74.23449,4.16579],[-74.23421,4.16679],[-74.234,4.16715],[-74.23364,4.16761],[-74.23357,4.16778],[-74.2333,4.1687],[-74.2332,4.16944],[-74.23314,4.16962],[-74.23267,4.17023],[-74.23199,4.17102],[-74.23189,4.17118],[-74.23192,4.17143],[-74.23221,4.17196],[-74.23227,4.17215],[-74.23222,4.1723],[-74.23183,4.17257],[-74.23122,4.17372],[-74.23048,4.17449],[-74.2302,4.175],[-74.22931,4.1758],[-74.22895,4.17644],[-74.22785,4.17761],[-74.22751,4.17785],[-74.2268,4.17813],[-74.22663,4.17828],[-74.22657,4.17854],[-74.22664,4.17869],[-74.22701,4.17904],[-74.2272,4.17917],[-74.22792,4.17927],[-74.22806,4.17948],[-74.2281,4.17973],[-74.22786,4.1802],[-74.2279,4.18042],[-74.2281,4.18067],[-74.22828,4.18071],[-74.22863,4.18074],[-74.22919,4.181],[-74.22942,4.18124],[-74.2298,4.18165],[-74.23025,4.18191],[-74.23032,4.1821],[-74.23028,4.18232],[-74.22992,4.18312],[-74.22983,4.18327],[-74.22969,4.18341]]}},{"type":"Feature","properties":{"id":"198084108","nom":"Vía Usme - Sumapáz","tipo":"tertiary"},"geometry":{"type":"LineString","coordinates":[[-74.19122,4.22486],[-74.19115,4.22461],[-74.19107,4.22454],[-74.19089,4.22446],[-74.19046,4.22425],[-74.19041,4.22418],[-74.19039,4.22406],[-74.19034,4.22338],[-74.19005,4.22271],[-74.18975,4.22206],[-74.18936,4.22122],[-74.18898,4.22067],[-74.18891,4.22044],[-74.18891,4.21953],[-74.18864,4.21874],[-74.18858,4.21834],[-74.18858,4.21807],[-74.18869,4.21761]]}},{"type":"Feature","properties":{"id":"198088996","nom":"Vía Usme - Sumapáz","tipo":"tertiary"},"geometry":{"type":"LineString","coordinates":[[-74.19075,4.19774],[-74.19061,4.19808],[-74.19053,4.19834],[-74.1905,4.19861],[-74.1905,4.19907],[-74.19066,4.19953],[-74.19069,4.19968],[-74.19066,4.19983],[-74.19058,4.20003],[-74.1905,4.20024],[-74.19048,4.20035],[-74.19044,4.20113],[-74.19042,4.20124],[-74.19036,4.20136],[-74.1903,4.20142],[-74.19022,4.20144],[-74.18976,4.2015],[-74.1896,4.20157],[-74.18947,4.20169],[-74.18942,4.20223],[-74.18943,4.20287],[-74.18928,4.20381],[-74.18922,4.20526],[-74.18908,4.20632],[-74.18912,4.20652],[-74.18948,4.20721],[-74.18948,4.20741],[-74.18943,4.20757],[-74.1892,4.20812],[-74.18904,4.20883],[-74.18864,4.20949],[-74.18865,4.20978],[-74.1887,4.21051],[-74.18871,4.21092],[-74.18852,4.21236],[-74.18857,4.21258],[-74.18884,4.21313],[-74.18902,4.2137],[-74.18913,4.21418],[-74.18912,4.21444],[-74.18889,4.21505],[-74.18881,4.21543],[-74.18882,4.21562],[-74.18898,4.21618],[-74.18899,4.21651],[-74.18869,4.21761]]}},{"type":"Feature","properties":{"id":"205862333","nom":"Calle 2","tipo":"residential"},"geometry":{"type":"LineString","coordinates":[[-74.29895,4.30843],[-74.29967,4.30876],[-74.29985,4.30884],[-74.30025,4.30902]]}},{"type":"Feature","properties":{"id":"205862334","nom":"Carrera 1","tipo":"residential"},"geometry":{"type":"LineString","coordinates":[[-74.30002,4.30848],[-74.29999,4.30854],[-74.29987,4.30881],[-74.29985,4.30884]]}},{"type":"Feature","properties":{"id":"205862336","nom":"Carrera 2","tipo":"secondary"},"geometry":{"type":"LineString","coordinates":[[-74.29999,4.30961],[-74.30008,4.30939]]}},{"type":"Feature","properties":{"id":"328232934","nom":"Vía Pasca - Usme","tipo":"secondary"},"geometry":{"type":"LineString","coordinates":[[-74.2787,4.23289],[-74.27796,4.23214],[-74.2775,4.23167],[-74.27722,4.23131],[-74.27704,4.23093],[-74.27687,4.23051],[-74.27678,4.23008],[-74.27666,4.22945],[-74.27659,4.22931],[-74.27646,4.22916],[-74.27629,4.22885],[-74.27611,4.22823],[-74.27607,4.22807],[-74.27607,4.22787],[-74.27615,4.2278],[-74.27621,4.22781],[-74.27648,4.22806],[-74.27656,4.22804],[-74.27658,4.22795],[-74.27644,4.22714],[-74.27639,4.22669],[-74.27631,4.22642],[-74.27625,4.22595],[-74.27619,4.2256],[-74.27574,4.22487],[-74.27563,4.22459],[-74.27551,4.22423],[-74.27541,4.22408],[-74.27521,4.22397],[-74.27476,4.22384],[-74.27442,4.22366],[-74.2741,4.22345],[-74.27389,4.22322],[-74.27366,4.22304],[-74.27318,4.22265],[-74.2731,4.2222],[-74.27246,4.22161],[-74.27161,4.22086],[-74.27142,4.22071],[-74.27126,4.22048],[-74.27045,4.2199],[-74.26987,4.21932],[-74.26951,4.21909],[-74.26931,4.21901],[-74.2691,4.21901],[-74.26891,4.21908],[-74.26872,4.21924],[-74.2679,4.2196],[-74.26734,4.21985],[-74.26657,4.22037],[-74.26645,4.22042],[-74.26635,4.22041],[-74.26625,4.22036]]}},{"type":"Feature","properties":{"id":"328232935","nom":"Vía Pasca - Usme","tipo":"secondary"},"geometry":{"type":"LineString","coordinates":[[-74.2484,4.21279],[-74.24818,4.21265],[-74.24799,4.21254],[-74.2478,4.21247],[-74.24762,4.21247],[-74.24751,4.21252],[-74.24743,4.21261],[-74.24731,4.21289],[-74.24725,4.21295],[-74.24716,4.21297],[-74.24703,4.21294],[-74.24687,4.21292],[-74.24675,4.21296],[-74.2466,4.21305],[-74.24649,4.21308],[-74.24635,4.21306],[-74.24571,4.21274],[-74.2456,4.21267],[-74.24547,4.21248],[-74.24533,4.21237],[-74.24518,4.21232],[-74.24508,4.21227],[-74.24499,4.21221],[-74.24487,4.21219],[-74.24458,4.21226],[-74.24448,4.21232],[-74.24442,4.21241],[-74.24439,4.21258],[-74.24431,4.2127],[-74.24379,4.21302],[-74.2437,4.21313],[-74.24364,4.21324],[-74.24349,4.21369],[-74.2434,4.21383],[-74.24325,4.21395],[-74.24279,4.21409],[-74.24232,4.2143],[-74.242,4.21432],[-74.24164,4.21429],[-74.24119,4.21414],[-74.24041,4.21386],[-74.24023,4.21384],[-74.23993,4.21377],[-74.23967,4.2137],[-74.23944,4.21357],[-74.23927,4.21349],[-74.23909,4.21346],[-74.23896,4.21344],[-74.23885,4.21345],[-74.23863,4.21349],[-74.23848,4.21349],[-74.23822,4.21343],[-74.23803,4.21339],[-74.23784,4.21336],[-74.23759,4.21336],[-74.23751,4.21335],[-74.23736,4.21332],[-74.23716,4.21321],[-74.23696,4.21316],[-74.23682,4.21309],[-74.23669,4.21302],[-74.23656,4.21295],[-74.23631,4.2129],[-74.23616,4.21284],[-74.236,4.21278],[-74.23573,4.21269],[-74.2356,4.21266],[-74.23551,4.21265],[-74.23544,4.21267],[-74.23534,4.21275],[-74.23523,4.21287],[-74.23513,4.21298],[-74.23501,4.21306],[-74.23475,4.21314],[-74.23398,4.21334],[-74.2334,4.21345],[-74.23329,4.2135],[-74.23321,4.21359],[-74.23305,4.21382],[-74.23299,4.21387],[-74.23258,4.21414],[-74.23235,4.21425],[-74.23218,4.21427],[-74.23205,4.21423],[-74.23197,4.21417],[-74.23189,4.21409],[-74.2317,4.2136],[-74.2317,4.21332],[-74.23173,4.21319],[-74.23178,4.21291],[-74.23178,4.21272],[-74.23174,4.21258],[-74.23164,4.21238],[-74.23159,4.21221],[-74.23159,4.21203],[-74.23158,4.21188],[-74.23153,4.21177],[-74.23137,4.21169],[-74.23126,4.21157],[-74.23115,4.21128],[-74.23103,4.21105],[-74.23103,4.21087],[-74.2312,4.2102],[-74.23134,4.20981],[-74.23137,4.20955],[-74.23135,4.20816],[-74.23155,4.20663],[-74.23165,4.20626],[-74.23163,4.20605],[-74.23159,4.20591],[-74.23135,4.20567],[-74.23129,4.20558],[-74.23127,4.20547],[-74.2313,4.20537],[-74.2315,4.20508],[-74.23159,4.20487],[-74.23164,4.20474],[-74.23161,4.20466],[-74.23155,4.20462],[-74.23123,4.20457],[-74.23116,4.20453],[-74.23111,4.20443],[-74.2311,4.20423],[-74.23111,4.2041],[-74.23117,4.20384],[-74.23134,4.20308],[-74.23139,4.20273],[-74.23127,4.20245],[-74.23121,4.20209],[-74.231,4.20165],[-74.2309,4.20128],[-74.23079,4.20105],[-74.23056,4.20079],[-74.23023,4.20052],[-74.23001,4.2004],[-74.22988,4.20024],[-74.22982,4.20019],[-74.22978,4.20018],[-74.22973,4.20019],[-74.22964,4.20024],[-74.22954,4.20026],[-74.22835,4.20027],[-74.22785,4.2002],[-74.22768,4.20013],[-74.22714,4.19974],[-74.22686,4.19949],[-74.22673,4.19935],[-74.22665,4.19916],[-74.22663,4.19895],[-74.22665,4.19873],[-74.22674,4.19844],[-74.22688,4.19812],[-74.2269,4.19795],[-74.22687,4.19767],[-74.22649,4.19675],[-74.22647,4.19666],[-74.2265,4.19651],[-74.22662,4.19628],[-74.22684,4.19564],[-74.22711,4.19514],[-74.2272,4.1949],[-74.22757,4.19356],[-74.22757,4.19335],[-74.22749,4.19294],[-74.2275,4.19278],[-74.22757,4.19266],[-74.22799,4.19223],[-74.22812,4.19201],[-74.22838,4.19125],[-74.22841,4.19105],[-74.22833,4.19055],[-74.22832,4.18991],[-74.22826,4.18964],[-74.22802,4.18891],[-74.2279,4.18877],[-74.2277,4.18862],[-74.22761,4.18851],[-74.2275,4.18819],[-74.22749,4.18777],[-74.22738,4.18734],[-74.22722,4.18687],[-74.22722,4.18675],[-74.22725,4.18668],[-74.22732,4.1866],[-74.22746,4.18654],[-74.22761,4.18653],[-74.22802,4.18642],[-74.22817,4.18642],[-74.22837,4.18646],[-74.22855,4.18649],[-74.22864,4.18647],[-74.22871,4.1864],[-74.22878,4.18628],[-74.22879,4.18611],[-74.22871,4.18586],[-74.22845,4.18534],[-74.22843,4.18524],[-74.22848,4.18514],[-74.22866,4.18496],[-74.22889,4.18479],[-74.22928,4.1846],[-74.22953,4.18451],[-74.22959,4.18446],[-74.22961,4.18437],[-74.22956,4.18392],[-74.22949,4.18375],[-74.22939,4.18361]]}},{"type":"Feature","properties":{"id":"505948610","nom":"Vía Usme - Sumapáz","tipo":"tertiary"},"geometry":{"type":"LineString","coordinates":[[-74.18877,4.23677],[-74.18882,4.23671],[-74.18892,4.23655],[-74.18895,4.23612],[-74.18897,4.23521],[-74.1889,4.23435],[-74.18878,4.23355],[-74.1887,4.23304],[-74.18873,4.23277],[-74.18883,4.23242],[-74.18886,4.23127],[-74.18904,4.22976],[-74.18917,4.22933],[-74.18932,4.22888],[-74.18965,4.22835],[-74.18996,4.228],[-74.19018,4.22765],[-74.1906,4.22688],[-74.19073,4.22654],[-74.1908,4.22551],[-74.19088,4.22531],[-74.19114,4.225]]}},{"type":"Feature","properties":{"id":"505948611","nom":"Vía Usme - Sumapáz","tipo":"tertiary"},"geometry":{"type":"LineString","coordinates":[[-74.1887,4.23686],[-74.18877,4.23677]]}},{"type":"Feature","properties":{"id":"512690524","nom":"","tipo":"residential"},"geometry":{"type":"LineString","coordinates":[[-74.29938,4.30699],[-74.29899,4.30663]]}},{"type":"Feature","properties":{"id":"622931305","nom":"Vía Usme - Sumapáz","tipo":"tertiary"},"geometry":{"type":"LineString","coordinates":[[-74.19566,4.35023],[-74.19577,4.35024],[-74.19585,4.35031],[-74.19617,4.35087],[-74.1965,4.35154],[-74.19658,4.3516],[-74.19669,4.35163],[-74.19679,4.35158],[-74.19685,4.3515],[-74.19686,4.35137],[-74.19685,4.3511],[-74.19682,4.35076],[-74.19679,4.35065],[-74.19673,4.35057],[-74.19661,4.35043],[-74.19657,4.35034],[-74.19656,4.35023],[-74.1966,4.34981],[-74.19663,4.34966],[-74.19669,4.34956],[-74.19679,4.34951],[-74.19691,4.34949],[-74.19746,4.34944],[-74.19775,4.34946],[-74.19786,4.34945],[-74.19795,4.34939],[-74.19803,4.34926],[-74.19809,4.34913],[-74.19822,4.34897],[-74.19834,4.34892],[-74.19849,4.34898],[-74.19858,4.34909],[-74.19873,4.34917],[-74.19882,4.3492],[-74.19908,4.34932],[-74.19927,4.34947],[-74.1995,4.34961],[-74.19961,4.34967],[-74.1997,4.34968],[-74.19977,4.34963],[-74.1998,4.34955],[-74.19983,4.34922],[-74.19988,4.34896],[-74.19988,4.34883],[-74.1998,4.34871],[-74.1994,4.34802],[-74.19925,4.3478],[-74.19912,4.34772],[-74.199,4.34764],[-74.19888,4.34754],[-74.19876,4.34746],[-74.19869,4.34734],[-74.19864,4.34715],[-74.19859,4.347],[-74.19857,4.34686],[-74.19857,4.34671],[-74.19862,4.34654],[-74.1987,4.34636],[-74.19887,4.34624],[-74.19908,4.34614],[-74.19946,4.34626],[-74.19966,4.34616],[-74.20019,4.34555],[-74.20038,4.34537],[-74.20133,4.34485],[-74.20163,4.34467],[-74.20201,4.34429],[-74.20222,4.34413],[-74.20253,4.34405],[-74.20275,4.34396],[-74.20286,4.3439],[-74.20292,4.34377],[-74.20286,4.34363],[-74.20269,4.34344],[-74.20257,4.34331],[-74.20251,4.34317],[-74.20255,4.34296],[-74.2027,4.34266],[-74.20278,4.34247],[-74.20283,4.34221],[-74.20278,4.34152],[-74.20277,4.341],[-74.2028,4.34069],[-74.20314,4.33985],[-74.2037,4.33902],[-74.20397,4.33865],[-74.20419,4.3384],[-74.20427,4.3382],[-74.20433,4.33793],[-74.20439,4.33777],[-74.2045,4.33755],[-74.20491,4.33729],[-74.20518,4.3371],[-74.20539,4.33671],[-74.20559,4.33651],[-74.20615,4.33618],[-74.20624,4.33613],[-74.20631,4.33596],[-74.20645,4.33527],[-74.20656,4.33484],[-74.20655,4.3347],[-74.20647,4.33443],[-74.20661,4.33372],[-74.20674,4.33314],[-74.2068,4.33278],[-74.20694,4.33234],[-74.20694,4.33212],[-74.20687,4.3318],[-74.20684,4.33149],[-74.2069,4.33078],[-74.20691,4.33056],[-74.20674,4.3301],[-74.20665,4.32981],[-74.20669,4.32961],[-74.207,4.32886],[-74.20705,4.32857],[-74.20718,4.32831],[-74.20732,4.32793],[-74.20738,4.32767],[-74.20749,4.3274],[-74.20773,4.32707],[-74.20799,4.32677],[-74.20812,4.32657],[-74.20809,4.32643],[-74.20794,4.32633],[-74.20769,4.32617],[-74.20758,4.32604],[-74.20747,4.32559],[-74.20727,4.32516],[-74.2072,4.32445],[-74.20702,4.32387],[-74.2069,4.32342],[-74.20681,4.32322],[-74.20671,4.32314],[-74.20639,4.32307],[-74.20632,4.323],[-74.2063,4.32291],[-74.20639,4.32196],[-74.20633,4.3218],[-74.20623,4.32168],[-74.20632,4.32114],[-74.20625,4.32085],[-74.20629,4.32054],[-74.20618,4.32013],[-74.206,4.31973],[-74.20604,4.31949],[-74.20655,4.3182],[-74.2067,4.31771],[-74.2068,4.31711],[-74.20713,4.31583],[-74.20727,4.31472],[-74.20766,4.31329],[-74.20799,4.31213],[-74.20822,4.3114],[-74.20863,4.31078],[-74.20894,4.3101],[-74.2092,4.3096],[-74.2095,4.3089],[-74.20985,4.30832],[-74.20999,4.30802],[-74.21014,4.30728],[-74.21016,4.30701],[-74.21009,4.30662],[-74.21009,4.30635],[-74.21015,4.30609],[-74.21035,4.30507],[-74.2108,4.30334],[-74.21098,4.30231],[-74.21101,4.30095],[-74.2108,4.3001],[-74.21065,4.299],[-74.21059,4.29833],[-74.21054,4.29787]]}},{"type":"Feature","properties":{"id":"809308474","nom":"Usme - San Juan del Sumapaz","tipo":"secondary"},"geometry":{"type":"LineString","coordinates":[[-74.22969,4.18341],[-74.22957,4.18349]]}},{"type":"Feature","properties":{"id":"809308475","nom":"Vía Usme-Sumapaz","tipo":"tertiary"},"geometry":{"type":"LineString","coordinates":[[-74.21024,4.18819],[-74.21019,4.18823],[-74.21004,4.18825],[-74.20988,4.18823],[-74.20977,4.18816],[-74.20835,4.18665],[-74.20824,4.18654],[-74.20809,4.18645],[-74.20794,4.18642],[-74.20745,4.18639],[-74.20724,4.18636],[-74.20708,4.18628],[-74.2069,4.18611],[-74.2068,4.18603],[-74.2067,4.18601],[-74.20659,4.18604],[-74.20648,4.1861],[-74.20627,4.18627],[-74.20618,4.18629],[-74.2061,4.18628],[-74.206,4.18623],[-74.20583,4.18608],[-74.20554,4.18568],[-74.20537,4.18552],[-74.20514,4.18544],[-74.20489,4.18541],[-74.20459,4.18552],[-74.20444,4.18553],[-74.20413,4.18551],[-74.20396,4.18553],[-74.20381,4.18563],[-74.20342,4.18605],[-74.20299,4.1866],[-74.20283,4.18671],[-74.20247,4.18682],[-74.20223,4.18695],[-74.20198,4.18703],[-74.20151,4.18706],[-74.20111,4.187],[-74.20074,4.18687],[-74.20047,4.18685],[-74.20022,4.18694],[-74.20004,4.1871],[-74.19982,4.18733],[-74.19972,4.18748],[-74.1996,4.18776],[-74.19951,4.1879],[-74.19889,4.18843],[-74.19868,4.18851],[-74.19848,4.18851],[-74.19826,4.18849],[-74.198,4.18853],[-74.1977,4.18864],[-74.19749,4.18867],[-74.19666,4.18864],[-74.19624,4.18867],[-74.196,4.18865],[-74.19569,4.18858],[-74.19547,4.18858],[-74.19499,4.1887],[-74.1944,4.18896],[-74.19302,4.1897],[-74.19282,4.18986],[-74.19274,4.19007],[-74.19275,4.19059],[-74.19299,4.19159],[-74.19296,4.19186],[-74.19283,4.19281],[-74.1926,4.19399],[-74.1925,4.19493],[-74.1923,4.19545],[-74.19221,4.19602],[-74.19179,4.19716],[-74.19166,4.19738],[-74.19148,4.19747],[-74.19106,4.19753],[-74.19086,4.19764],[-74.19075,4.19774]]}},{"type":"Feature","properties":{"id":"817221445","nom":"Vía Pasca - Usme","tipo":"secondary"},"geometry":{"type":"LineString","coordinates":[[-74.26334,4.24585],[-74.26333,4.24579],[-74.26335,4.24573],[-74.26339,4.24568],[-74.26346,4.24565]]}},{"type":"Feature","properties":{"id":"817221446","nom":"Vía Pasca - Usme","tipo":"secondary"},"geometry":{"type":"LineString","coordinates":[[-74.26346,4.24565],[-74.26379,4.24559],[-74.26444,4.24567],[-74.26587,4.24595],[-74.26627,4.2461],[-74.26641,4.24613],[-74.26655,4.24611]]}},{"type":"Feature","properties":{"id":"817221447","nom":"Vía Pasca - Usme","tipo":"secondary"},"geometry":{"type":"LineString","coordinates":[[-74.3009,4.30129],[-74.30077,4.30095],[-74.30062,4.30075],[-74.30036,4.30069],[-74.30018,4.30066],[-74.3001,4.30073],[-74.3,4.3009],[-74.29992,4.30092],[-74.29983,4.30091],[-74.29966,4.30084],[-74.2994,4.30079],[-74.29911,4.30075],[-74.2989,4.30074],[-74.29809,4.30081],[-74.29783,4.30089],[-74.29744,4.3011],[-74.29735,4.30115],[-74.29724,4.30115],[-74.29715,4.30111],[-74.29692,4.30097],[-74.29673,4.30078],[-74.29642,4.3006],[-74.29583,4.30045],[-74.29573,4.30037],[-74.29567,4.30027],[-74.29567,4.30017],[-74.29576,4.29917],[-74.2958,4.29901],[-74.29586,4.29892],[-74.29653,4.29832],[-74.29799,4.29694],[-74.29813,4.2968],[-74.29816,4.29665],[-74.29816,4.29645],[-74.29808,4.29602],[-74.29799,4.29529],[-74.29706,4.29487],[-74.29691,4.29485],[-74.29676,4.29488],[-74.29626,4.29525],[-74.29612,4.29528],[-74.29601,4.29524],[-74.29591,4.29517],[-74.29576,4.29502],[-74.29562,4.29493],[-74.29547,4.29491],[-74.29531,4.29493],[-74.29516,4.29489],[-74.29503,4.2948],[-74.29489,4.29465],[-74.29485,4.29448],[-74.29492,4.29426],[-74.29491,4.29412],[-74.29482,4.29401],[-74.29464,4.29381],[-74.29453,4.29367],[-74.2945,4.29352],[-74.29465,4.29279],[-74.295,4.29258],[-74.29522,4.2924],[-74.2953,4.29226],[-74.29532,4.29207],[-74.29529,4.29104],[-74.29516,4.29042],[-74.29508,4.29015],[-74.29497,4.28997],[-74.29477,4.28972],[-74.29457,4.28919],[-74.2945,4.28908],[-74.29436,4.289],[-74.29401,4.28881],[-74.29394,4.28871],[-74.29394,4.28858],[-74.29404,4.28845],[-74.29433,4.28802],[-74.29448,4.28774],[-74.29452,4.28761],[-74.29445,4.28707],[-74.29446,4.28668],[-74.29451,4.2863],[-74.29457,4.28598],[-74.29465,4.28582],[-74.29492,4.28561],[-74.29525,4.28545],[-74.29576,4.28525],[-74.29606,4.28508],[-74.29613,4.28492],[-74.29612,4.28476],[-74.29606,4.28434],[-74.29607,4.28411],[-74.29618,4.28392],[-74.29651,4.28342],[-74.29659,4.28327],[-74.29664,4.28291],[-74.29684,4.28274],[-74.29718,4.28233],[-74.29752,4.28186],[-74.29779,4.28171],[-74.29807,4.28168],[-74.29828,4.28161],[-74.29888,4.2807],[-74.29906,4.28051],[-74.29959,4.28046],[-74.29994,4.28042],[-74.30007,4.2804],[-74.30018,4.28033],[-74.30024,4.2801],[-74.3003,4.28],[-74.30045,4.27993],[-74.30076,4.27978],[-74.30084,4.2797],[-74.30088,4.27959],[-74.30086,4.27947],[-74.30076,4.27941],[-74.30002,4.27914],[-74.29988,4.27911],[-74.29977,4.27903],[-74.29962,4.2788],[-74.29952,4.27876],[-74.29941,4.27881],[-74.29921,4.27899],[-74.29912,4.27904],[-74.29902,4.27905],[-74.2988,4.27895],[-74.29872,4.27884],[-74.29857,4.27878],[-74.29837,4.27879],[-74.29814,4.27882],[-74.29795,4.2788],[-74.29771,4.27876],[-74.29746,4.2787],[-74.29699,4.27879],[-74.29616,4.27906],[-74.29599,4.27913],[-74.29586,4.27928],[-74.29576,4.27949],[-74.29552,4.2799],[-74.29516,4.28026],[-74.29497,4.28041],[-74.2948,4.28035],[-74.29445,4.28006],[-74.29405,4.27979],[-74.29396,4.27969],[-74.29395,4.27962],[-74.29397,4.27952],[-74.29403,4.27929],[-74.29414,4.27909],[-74.2942,4.27891],[-74.29416,4.2788],[-74.294,4.27861],[-74.2937,4.2783],[-74.29354,4.27817],[-74.29344,4.27812],[-74.29331,4.27815],[-74.29312,4.27824],[-74.29297,4.27828],[-74.29276,4.27823],[-74.29235,4.27799],[-74.29182,4.27766],[-74.29142,4.27733],[-74.29102,4.277],[-74.29059,4.27675],[-74.2902,4.2766],[-74.28968,4.27639],[-74.28939,4.27628],[-74.28923,4.27614],[-74.28908,4.27597],[-74.28904,4.27591],[-74.28904,4.2758],[-74.28906,4.27569],[-74.28932,4.27537],[-74.28979,4.27481],[-74.29002,4.27421],[-74.29002,4.27381],[-74.28994,4.27338],[-74.28988,4.27322],[-74.28971,4.27306],[-74.28911,4.27286],[-74.28893,4.27278],[-74.28886,4.2727],[-74.28851,4.27213],[-74.28843,4.27163],[-74.28842,4.27131],[-74.28836,4.27109],[-74.28825,4.27085],[-74.28811,4.27064],[-74.28796,4.27042],[-74.28719,4.26988],[-74.28701,4.26977],[-74.28684,4.26974],[-74.2867,4.26976],[-74.28657,4.26986],[-74.28646,4.26989],[-74.2863,4.26984],[-74.28612,4.26979],[-74.28602,4.26974],[-74.28596,4.26966],[-74.28586,4.26941],[-74.2857,4.26924],[-74.28525,4.26908],[-74.28498,4.269],[-74.2847,4.26894],[-74.28447,4.26899],[-74.28412,4.26913],[-74.28396,4.26914],[-74.28328,4.26909],[-74.28291,4.26889],[-74.28275,4.26886],[-74.28256,4.2687],[-74.28244,4.26852],[-74.28235,4.26837],[-74.28236,4.26807],[-74.28236,4.26766],[-74.28229,4.26747],[-74.28207,4.26724],[-74.28193,4.26713],[-74.28148,4.26699],[-74.28116,4.2668],[-74.28091,4.26661],[-74.28078,4.26643],[-74.28066,4.26616],[-74.28052,4.26582],[-74.2803,4.26547],[-74.28007,4.26529],[-74.27982,4.26515],[-74.27952,4.26492],[-74.27911,4.26467],[-74.27853,4.2647],[-74.27808,4.26428],[-74.27785,4.26386],[-74.27808,4.26294],[-74.27807,4.26274],[-74.27696,4.26199],[-74.27636,4.26173],[-74.27573,4.26146],[-74.27536,4.26133],[-74.2753,4.2613],[-74.27525,4.26126],[-74.27521,4.26121],[-74.27518,4.26114],[-74.27516,4.26107],[-74.27513,4.2608],[-74.2751,4.26053],[-74.2751,4.26029],[-74.2751,4.26021],[-74.27512,4.26014],[-74.27515,4.26009],[-74.27519,4.26004],[-74.27533,4.25991],[-74.27548,4.25979],[-74.27555,4.25973],[-74.27561,4.25967],[-74.27565,4.25961],[-74.27567,4.25954],[-74.27569,4.25948],[-74.27572,4.25929],[-74.27573,4.2592],[-74.2757,4.25911],[-74.27567,4.25905],[-74.2756,4.25897],[-74.27549,4.25886],[-74.27541,4.25878],[-74.27535,4.25871],[-74.27532,4.25865],[-74.27532,4.25859],[-74.27532,4.25851],[-74.27538,4.25839],[-74.27541,4.25828],[-74.27542,4.25821],[-74.27542,4.25815],[-74.2754,4.25809],[-74.27538,4.25806],[-74.27534,4.25804],[-74.2753,4.25802],[-74.27523,4.25801],[-74.27513,4.25803],[-74.27502,4.25804],[-74.2749,4.25804],[-74.2748,4.25803],[-74.27472,4.25802],[-74.27467,4.25802],[-74.27461,4.25804],[-74.27455,4.25807],[-74.27446,4.25814],[-74.27438,4.25817],[-74.27432,4.25818],[-74.27425,4.25817],[-74.2742,4.25814],[-74.27415,4.2581],[-74.27408,4.25803],[-74.27367,4.25746],[-74.27335,4.2571],[-74.27331,4.25694],[-74.27329,4.25673],[-74.2733,4.25639],[-74.27326,4.25622],[-74.2731,4.25605],[-74.27271,4.25576],[-74.27228,4.25549],[-74.27188,4.25533],[-74.27178,4.25531],[-74.2717,4.25535],[-74.27164,4.25544],[-74.2715,4.25558],[-74.27139,4.25562],[-74.27128,4.25562],[-74.27119,4.25556],[-74.27113,4.2554],[-74.27113,4.25523],[-74.27116,4.25508],[-74.27115,4.25492],[-74.27111,4.25485],[-74.27104,4.25482],[-74.27095,4.25483],[-74.2707,4.25489],[-74.27052,4.25487],[-74.27033,4.25479],[-74.2702,4.25471],[-74.27,4.25468],[-74.26972,4.25468],[-74.26955,4.25464],[-74.26947,4.25458],[-74.26945,4.25449],[-74.26946,4.25442],[-74.2695,4.25438],[-74.26959,4.25435],[-74.26982,4.25435],[-74.26995,4.25432],[-74.27007,4.25426],[-74.27013,4.25415],[-74.27013,4.25406],[-74.27008,4.25398],[-74.26999,4.25394],[-74.26983,4.25396],[-74.26967,4.25398],[-74.26934,4.25391],[-74.26915,4.25385],[-74.26905,4.25373],[-74.269,4.25362],[-74.26901,4.25353],[-74.26907,4.25346],[-74.26923,4.2534],[-74.26954,4.25334],[-74.26962,4.25329],[-74.26966,4.25319],[-74.26965,4.2531],[-74.26958,4.25298],[-74.26946,4.2529],[-74.26918,4.25276],[-74.26909,4.25264],[-74.26902,4.25248],[-74.26892,4.25232],[-74.26882,4.25223],[-74.26872,4.25222],[-74.2686,4.25227]]}},{"type":"Feature","properties":{"id":"817221448","nom":"Vía Pasca - Usme","tipo":"secondary"},"geometry":{"type":"LineString","coordinates":[[-74.26655,4.24611],[-74.26664,4.24604],[-74.26672,4.24596],[-74.26688,4.24561],[-74.26713,4.24491],[-74.2672,4.24468],[-74.26721,4.2445],[-74.26717,4.24436],[-74.26703,4.24404],[-74.26683,4.24349],[-74.2668,4.24329],[-74.2668,4.24301],[-74.26683,4.24286],[-74.26691,4.24271],[-74.26717,4.24243],[-74.2676,4.24204],[-74.26767,4.24199],[-74.26776,4.24197],[-74.26796,4.24197],[-74.26808,4.24194],[-74.26844,4.24178],[-74.26886,4.24171],[-74.26932,4.24165],[-74.26942,4.24165],[-74.26955,4.24168],[-74.26979,4.24183],[-74.26986,4.24192],[-74.2699,4.24207],[-74.26995,4.24225],[-74.27002,4.24234],[-74.27013,4.24242],[-74.2704,4.24248],[-74.27061,4.2425],[-74.27069,4.24247],[-74.27075,4.24243],[-74.27083,4.24221],[-74.2709,4.24202],[-74.27096,4.24198],[-74.27103,4.24198],[-74.27111,4.24204],[-74.2714,4.24256],[-74.27149,4.24264],[-74.27161,4.24268],[-74.27179,4.24268],[-74.27213,4.24269],[-74.27245,4.24278],[-74.27266,4.24288],[-74.27283,4.24289],[-74.27297,4.24285],[-74.27325,4.24268],[-74.27379,4.24214],[-74.27386,4.242],[-74.27385,4.24182],[-74.27378,4.24131],[-74.27378,4.2411],[-74.27387,4.24088],[-74.27415,4.24027],[-74.27441,4.23961],[-74.27481,4.2389],[-74.2752,4.23811],[-74.2758,4.23722],[-74.27625,4.23638],[-74.27691,4.23509],[-74.27731,4.23451],[-74.27756,4.23424],[-74.27763,4.23414],[-74.27764,4.23407],[-74.27765,4.23393],[-74.27768,4.2338],[-74.27771,4.23373],[-74.27778,4.23368],[-74.27787,4.23366],[-74.27801,4.23364],[-74.27806,4.23362],[-74.27809,4.23357],[-74.27809,4.23351],[-74.27805,4.23339],[-74.27805,4.23329],[-74.2781,4.23323],[-74.27817,4.23321],[-74.27834,4.23325],[-74.27852,4.23326],[-74.27866,4.2332],[-74.27873,4.23312],[-74.27874,4.23302],[-74.2787,4.23289]]}},{"type":"Feature","properties":{"id":"817222862","nom":"Vía Pasca - Usme","tipo":"secondary"},"geometry":{"type":"LineString","coordinates":[[-74.26625,4.22036],[-74.2661,4.22019],[-74.26577,4.21972],[-74.26572,4.21961],[-74.26568,4.21931],[-74.26565,4.2192],[-74.26561,4.21914],[-74.26553,4.21911],[-74.26544,4.21913],[-74.26535,4.2192],[-74.26499,4.21969],[-74.26489,4.21973],[-74.26467,4.21975],[-74.26444,4.21985],[-74.26401,4.22022],[-74.26381,4.22033],[-74.26363,4.22048],[-74.26352,4.22053],[-74.26333,4.22057],[-74.26319,4.22061],[-74.26304,4.22063],[-74.26291,4.22069],[-74.26283,4.22071],[-74.26275,4.22072],[-74.26268,4.22069],[-74.26252,4.22068],[-74.26166,4.22101],[-74.26112,4.22119],[-74.26062,4.2214],[-74.26046,4.22149],[-74.26037,4.2216],[-74.26014,4.22191],[-74.26002,4.22202],[-74.25965,4.2222],[-74.25958,4.22225],[-74.25955,4.22231],[-74.25955,4.22247],[-74.25952,4.22258],[-74.25937,4.22289],[-74.25929,4.22312],[-74.25928,4.22321],[-74.25934,4.22329],[-74.25952,4.22338],[-74.25973,4.22345],[-74.25985,4.22358],[-74.2599,4.22365],[-74.2599,4.22374],[-74.25987,4.22381],[-74.25964,4.22409],[-74.25956,4.22416],[-74.25943,4.22421],[-74.25931,4.22426],[-74.25923,4.22439],[-74.25917,4.22444],[-74.25903,4.22453],[-74.25895,4.22461],[-74.25885,4.22481],[-74.25881,4.22486],[-74.25877,4.22489]]}},{"type":"Feature","properties":{"id":"913186684","nom":"","tipo":"residential"},"geometry":{"type":"LineString","coordinates":[[-74.29862,4.30726],[-74.29859,4.30724],[-74.29857,4.30721],[-74.29853,4.30715],[-74.29846,4.30704],[-74.29817,4.30653]]}},{"type":"Feature","properties":{"id":"913186685","nom":"","tipo":"residential"},"geometry":{"type":"LineString","coordinates":[[-74.29919,4.30727],[-74.29902,4.30719],[-74.29888,4.30711],[-74.29882,4.30708],[-74.29879,4.30706],[-74.29877,4.30703],[-74.29864,4.30681],[-74.2984,4.30637]]}},{"type":"Feature","properties":{"id":"1076222476","nom":"Vía Usme - Sumapáz","tipo":"tertiary"},"geometry":{"type":"LineString","coordinates":[[-74.21054,4.29787],[-74.21048,4.29728],[-74.21044,4.29646],[-74.21069,4.29443],[-74.21091,4.2939],[-74.21101,4.29364],[-74.21099,4.29329],[-74.21068,4.29267],[-74.20993,4.29184],[-74.20939,4.29146],[-74.20804,4.29078],[-74.20788,4.29068],[-74.20775,4.29052],[-74.20747,4.28982],[-74.20742,4.28958],[-74.20728,4.28933],[-74.20711,4.2892],[-74.20692,4.28915],[-74.20672,4.28913]]}},{"type":"Feature","properties":{"id":"1176116544","nom":"Carrera 4Este","tipo":"residential"},"geometry":{"type":"LineString","coordinates":[[-74.29934,4.30706],[-74.29938,4.30699]]}},{"type":"Feature","properties":{"id":"1176116545","nom":"Carrera 4Este","tipo":"residential"},"geometry":{"type":"LineString","coordinates":[[-74.29924,4.3072],[-74.29934,4.30706]]}},{"type":"Feature","properties":{"id":"1268533360","nom":"","tipo":"residential"},"geometry":{"type":"LineString","coordinates":[[-74.29879,4.30706],[-74.29862,4.30726]]}},{"type":"Feature","properties":{"id":"1268533361","nom":"","tipo":"residential"},"geometry":{"type":"LineString","coordinates":[[-74.29817,4.30653],[-74.2984,4.30637]]}},{"type":"Feature","properties":{"id":"1268533373","nom":"Vía Pasca - Usme","tipo":"secondary"},"geometry":{"type":"LineString","coordinates":[[-74.25877,4.22489],[-74.25872,4.22488],[-74.25866,4.22485],[-74.25849,4.22468],[-74.25814,4.2244],[-74.25801,4.22424],[-74.2577,4.22388],[-74.25757,4.22366],[-74.25749,4.22337],[-74.25746,4.22299],[-74.25745,4.22276],[-74.25749,4.22261],[-74.25761,4.22228],[-74.2577,4.22192],[-74.25776,4.2214],[-74.2578,4.22033],[-74.25777,4.22012],[-74.25762,4.21969],[-74.25747,4.21916],[-74.25741,4.21885],[-74.2573,4.21864],[-74.25707,4.21818],[-74.25685,4.21783],[-74.25669,4.21766],[-74.25649,4.21751],[-74.25634,4.21735],[-74.25608,4.21692],[-74.25584,4.21661],[-74.25566,4.21649],[-74.25554,4.21645],[-74.25546,4.21646],[-74.25537,4.21649],[-74.25528,4.2165],[-74.25515,4.21645],[-74.25495,4.21629],[-74.25473,4.21608],[-74.25458,4.21587],[-74.25448,4.21565],[-74.25439,4.21547],[-74.25425,4.21525],[-74.25412,4.21511],[-74.25401,4.21506],[-74.25383,4.21502],[-74.25371,4.21503],[-74.25362,4.2151],[-74.25357,4.21518],[-74.2535,4.21526],[-74.25343,4.21529],[-74.25337,4.21528],[-74.25331,4.21523],[-74.25326,4.21517],[-74.25319,4.21505],[-74.25308,4.21475],[-74.253,4.21463],[-74.2529,4.21453],[-74.25281,4.21447],[-74.25273,4.21441],[-74.25265,4.2144],[-74.25258,4.21442],[-74.25251,4.21449],[-74.25244,4.21454],[-74.25234,4.21456],[-74.2521,4.21457],[-74.25202,4.21461],[-74.25196,4.21468],[-74.25189,4.21483],[-74.25185,4.21491],[-74.25175,4.21499],[-74.25166,4.21501],[-74.25159,4.21498],[-74.25149,4.2149],[-74.25129,4.21482],[-74.25023,4.21437],[-74.25007,4.21426],[-74.24991,4.21409],[-74.24915,4.21323],[-74.24868,4.21293]]}},{"type":"Feature","properties":{"id":"1268533374","nom":"Vía Pasca - Usme","tipo":"secondary"},"geometry":{"type":"LineString","coordinates":[[-74.24868,4.21293],[-74.2484,4.21279]]}},{"type":"Feature","properties":{"id":"1275306254","nom":"","tipo":"residential"},"geometry":{"type":"LineString","coordinates":[[-74.29992,4.30515],[-74.29996,4.30514],[-74.29999,4.30514],[-74.30006,4.30516],[-74.30017,4.30521],[-74.30039,4.30533]]}},{"type":"Feature","properties":{"id":"1453084644","nom":"","tipo":"secondary"},"geometry":{"type":"LineString","coordinates":[[-74.22957,4.18349],[-74.22952,4.18353],[-74.22939,4.18361]]}},{"type":"Feature","properties":{"id":"1453084645","nom":"Vía Pasca - Usme","tipo":"secondary"},"geometry":{"type":"LineString","coordinates":[[-74.26853,4.25229],[-74.26852,4.25229],[-74.26844,4.25227],[-74.26827,4.2522],[-74.268,4.25208],[-74.26748,4.25158],[-74.26741,4.2514],[-74.2674,4.25117],[-74.26743,4.25101],[-74.26737,4.25086],[-74.26722,4.25067],[-74.26717,4.25048],[-74.26717,4.25021],[-74.26706,4.24993],[-74.26691,4.24972],[-74.26667,4.24957],[-74.26645,4.24939],[-74.26641,4.24929],[-74.26642,4.24919],[-74.26647,4.24914],[-74.26659,4.24911],[-74.26674,4.24906],[-74.26691,4.24892],[-74.26699,4.24878],[-74.26696,4.24866],[-74.26669,4.24827],[-74.26646,4.248],[-74.2662,4.24786],[-74.26586,4.24776],[-74.26552,4.24775],[-74.2649,4.24785],[-74.26475,4.24781],[-74.26458,4.24766],[-74.26434,4.24728],[-74.26385,4.24651],[-74.26367,4.24624],[-74.26357,4.24608],[-74.26338,4.24591],[-74.26334,4.24585]]}},{"type":"Feature","properties":{"id":"1453084646","nom":"Vía Pasca - Usme","tipo":"secondary"},"geometry":{"type":"LineString","coordinates":[[-74.2686,4.25227],[-74.26853,4.25229]]}},{"type":"Feature","properties":{"id":"1453084647","nom":"Vía Usme-Sumapaz","tipo":"tertiary"},"geometry":{"type":"LineString","coordinates":[[-74.22939,4.18361],[-74.22852,4.18392],[-74.22826,4.18409],[-74.22811,4.18414],[-74.22792,4.18412],[-74.2272,4.18382],[-74.22691,4.18369],[-74.22673,4.1835],[-74.2264,4.18294],[-74.22627,4.18282],[-74.22611,4.18275],[-74.22529,4.18252],[-74.22472,4.18247],[-74.22437,4.18252],[-74.22416,4.18259],[-74.22401,4.1827],[-74.2237,4.18305],[-74.22352,4.18316],[-74.22311,4.18331],[-74.22293,4.1834],[-74.2222,4.18388],[-74.2221,4.18391],[-74.22198,4.18391],[-74.22184,4.18385],[-74.22131,4.18347],[-74.22092,4.18327],[-74.22048,4.18325],[-74.22021,4.18321],[-74.22004,4.18317],[-74.21978,4.18316],[-74.21916,4.18322],[-74.21902,4.18325],[-74.21891,4.18332],[-74.21881,4.18345],[-74.21861,4.18374],[-74.2185,4.1838],[-74.21837,4.18381],[-74.2181,4.18377],[-74.21786,4.18367],[-74.21774,4.18357],[-74.21744,4.18317],[-74.21733,4.1831],[-74.2172,4.18309],[-74.21709,4.18312],[-74.21669,4.18334],[-74.21655,4.18337],[-74.21585,4.18338],[-74.21568,4.18344],[-74.21531,4.18369],[-74.21505,4.18377],[-74.21376,4.18374],[-74.21358,4.18379],[-74.21331,4.18391],[-74.2132,4.18393],[-74.21309,4.18392],[-74.2127,4.18376],[-74.21254,4.18376],[-74.21241,4.18379],[-74.2123,4.18387],[-74.21219,4.18403],[-74.21202,4.18441],[-74.21188,4.18463],[-74.21168,4.18482],[-74.21134,4.18496],[-74.21027,4.18516],[-74.21015,4.18524],[-74.21009,4.18535],[-74.21006,4.18552],[-74.21006,4.18647],[-74.2101,4.18663],[-74.21014,4.18678],[-74.21041,4.18751],[-74.21043,4.18775],[-74.21041,4.18796],[-74.21034,4.18809],[-74.2103,4.18813]]}},{"type":"Feature","properties":{"id":"1453084648","nom":"Vía Usme-Sumapaz","tipo":"tertiary"},"geometry":{"type":"LineString","coordinates":[[-74.2103,4.18813],[-74.21024,4.18819]]}}]}